TERRASAR-X              
1 31698U 07026A   26086.51505740  .00001049  00000+0  53149-4 0  9990
2 31698  97.4468  95.3860 0001978  86.5295 273.6166 15.19152189 40825
WORLDVIEW-1 (WV-1)      
1 32060U 07041A   26088.07191152  .00009429  00000+0  39287-3 0  9998
2 32060  97.3827 208.9554 0002001  10.9583 349.1697 15.23926079 30670
YAOGAN-3                
1 32289U 07055A   26088.17873589  .00003874  00000+0  40280-3 0  9991
2 32289  97.8253 118.8336 0001539  80.8604 279.2788 14.90463899993944
COSMO-SKYMED 2          
1 32376U 07059A   26088.16106215  .00000316  00000+0  46204-4 0  9997
2 32376  97.8878 272.9162 0001288  87.8197 272.3163 14.82148334990143
RADARSAT-2              
1 32382U 07061A   26088.13106583  .00000201  00000+0  94743-4 0  9996
2 32382  98.5819  96.1990 0001216  84.5395 275.5926 14.29984382954518
CARTOSAT-2A             
1 32783U 08021A   26088.15649554  .00000530  00000+0  78190-4 0  9993
2 32783  97.7738 139.5657 0012276  18.5776 341.5882 14.79133781966976
HUANJING 1A (HJ-1A)     
1 33320U 08041A   26088.19228788  .00002260  00000+0  27810-3 0  9993
2 33320  97.6652  77.1533 0020338  44.4901 315.7942 14.83785296946544
HUANJING 1B (HJ-1B)     
1 33321U 08041B   26088.19384681  .00001595  00000+0  19944-3 0  9998
2 33321  97.6498  80.5625 0038052  85.9490 274.6073 14.83153059946553
GEOEYE 1                
1 33331U 08042A   26088.22363090  .00000650  00000+0  13126-3 0  9992
2 33331  98.1276 163.1579 0003266 328.5123  31.5884 14.64646343938449
THEOS                   
1 33396U 08049A   26088.14209921  .00000169  00000+0  99257-4 0  9998
2 33396  98.5663 147.9954 0001075  97.0580 263.0719 14.20121080906602
COSMO-SKYMED 3          
1 33412U 08054A   26088.18306586  .00004212  00000+0  28947-3 0  9992
2 33412  97.8400 305.4081 0015934 171.5224 188.6275 15.06411482944891
YAOGAN-4                
1 33446U 08061A   26088.08434157  .00001405  00000+0  17917-3 0  9998
2 33446  97.9263  22.2164 0013785 337.5029  22.5578 14.83034078933796
GOSAT (IBUKI)           
1 33492U 09002A   26088.22898322  .00000775  00000+0  14515-3 0  9999
2 33492  98.0788 200.3541 0000996  92.7615 267.3703 14.67545866919731
DEIMOS-1                
1 35681U 09041A   26088.14817205  .00001037  00000+0  16071-3 0  9997
2 35681  97.7294 248.8896 0002752  88.2620 271.8905 14.75145669895080
DUBAISAT-1              
1 35682U 09041B   26088.11113574  .00001384  00000+0  21341-3 0  9994
2 35682  97.9912 222.3112 0009733 334.4328  25.6398 14.74959342893297
OCEANSAT-2              
1 35931U 09051A   26088.13500829  .00000249  00000+0  19544-3 0  9998
2 35931  98.2312  82.9942 0017676  98.6488 261.6682 13.99652696868135
WORLDVIEW-2 (WV-2)      
1 35946U 09055A   26088.21073403  .00000177  00000+0  73104-4 0  9993
2 35946  98.4662 162.7949 0005571  98.5281 261.6537 14.37918618864155
