[{"OBJECT_NAME":"TERRASAR-X","OBJECT_ID":"2007-026A","EPOCH":"2026-03-27T12:21:40.959360","MEAN_MOTION":15.19152189,"ECCENTRICITY":0.0001978,"INCLINATION":97.4468,"RA_OF_ASC_NODE":95.386,"ARG_OF_PERICENTER":86.5295,"MEAN_ANOMALY":273.6166,"EPHEMERIS_TYPE":0,"CLASSIFICATION_TYPE":"U","NORAD_CAT_ID":31698,"ELEMENT_SET_NO":999,"REV_AT_EPOCH":4082,"BSTAR":5.3149e-5,"MEAN_MOTION_DOT":1.049e-5,"MEAN_MOTION_DDOT":0},{"OBJECT_NAME":"WORLDVIEW-1 (WV-1)","OBJECT_ID":"2007-041A","EPOCH":"2026-03-29T01:43:33.155328","MEAN_MOTION":15.23926079,"ECCENTRICITY":0.0002001,"INCLINATION":97.3827,"RA_OF_ASC_NODE":208.9554,"ARG_OF_PERICENTER":10.9583,"MEAN_ANOMALY":349.1697,"EPHEMERIS_TYPE":0,"CLASSIFICATION_TYPE":"U","NORAD_CAT_ID":32060,"ELEMENT_SET_NO":999,"REV_AT_EPOCH":3067,"BSTAR":0.00039287,"MEAN_MOTION_DOT":9.429e-5,"MEAN_MOTION_DDOT":0},{"OBJECT_NAME":"YAOGAN-3","OBJECT_ID":"2007-055A","EPOCH":"2026-03-29T04:17:22.780896","MEAN_MOTION":14.90463899,"ECCENTRICITY":0.0001539,"INCLINATION":97.8253,"RA_OF_ASC_NODE":118.8336,"ARG_OF_PERICENTER":80.8604,"MEAN_ANOMALY":279.2788,"EPHEMERIS_TYPE":0,"CLASSIFICATION_TYPE":"U","NORAD_CAT_ID":32289,"ELEMENT_SET_NO":999,"REV_AT_EPOCH":99394,"BSTAR":0.0004028,"MEAN_MOTION_DOT":3.874e-5,"MEAN_MOTION_DDOT":0},{"OBJECT_NAME":"COSMO-SKYMED 2","OBJECT_ID":"2007-059A","EPOCH":"2026-03-29T03:51:55.769760","MEAN_MOTION":14.82148334,"ECCENTRICITY":0.0001288,"INCLINATION":97.8878,"RA_OF_ASC_NODE":272.9162,"ARG_OF_PERICENTER":87.8197,"MEAN_ANOMALY":272.3163,"EPHEMERIS_TYPE":0,"CLASSIFICATION_TYPE":"U","NORAD_CAT_ID":32376,"ELEMENT_SET_NO":999,"REV_AT_EPOCH":99014,"BSTAR":4.6204e-5,"MEAN_MOTION_DOT":3.16e-6,"MEAN_MOTION_DDOT":0},{"OBJECT_NAME":"RADARSAT-2","OBJECT_ID":"2007-061A","EPOCH":"2026-03-29T03:08:44.087712","MEAN_MOTION":14.29984382,"ECCENTRICITY":0.0001216,"INCLINATION":98.5819,"RA_OF_ASC_NODE":96.199,"ARG_OF_PERICENTER":84.5395,"MEAN_ANOMALY":275.5926,"EPHEMERIS_TYPE":0,"CLASSIFICATION_TYPE":"U","NORAD_CAT_ID":32382,"ELEMENT_SET_NO":999,"REV_AT_EPOCH":95451,"BSTAR":9.4743e-5,"MEAN_MOTION_DOT":2.01e-6,"MEAN_MOTION_DDOT":0},{"OBJECT_NAME":"CARTOSAT-2A","OBJECT_ID":"2008-021A","EPOCH":"2026-03-29T03:45:21.214656","MEAN_MOTION":14.79133781,"ECCENTRICITY":0.0012276,"INCLINATION":97.7738,"RA_OF_ASC_NODE":139.5657,"ARG_OF_PERICENTER":18.5776,"MEAN_ANOMALY":341.5882,"EPHEMERIS_TYPE":0,"CLASSIFICATION_TYPE":"U","NORAD_CAT_ID":32783,"ELEMENT_SET_NO":999,"REV_AT_EPOCH":96697,"BSTAR":7.819e-5,"MEAN_MOTION_DOT":5.3e-6,"MEAN_MOTION_DDOT":0},{"OBJECT_NAME":"HUANJING 1A (HJ-1A)","OBJECT_ID":"2008-041A","EPOCH":"2026-03-29T04:36:53.672832","MEAN_MOTION":14.83785296,"ECCENTRICITY":0.0020338,"INCLINATION":97.6652,"RA_OF_ASC_NODE":77.1533,"ARG_OF_PERICENTER":44.4901,"MEAN_ANOMALY":315.7942,"EPHEMERIS_TYPE":0,"CLASSIFICATION_TYPE":"U","NORAD_CAT_ID":33320,"ELEMENT_SET_NO":999,"REV_AT_EPOCH":94654,"BSTAR":0.0002781,"MEAN_MOTION_DOT":2.26e-5,"MEAN_MOTION_DDOT":0},{"OBJECT_NAME":"HUANJING 1B (HJ-1B)","OBJECT_ID":"2008-041B","EPOCH":"2026-03-29T04:39:08.364384","MEAN_MOTION":14.83153059,"ECCENTRICITY":0.0038052,"INCLINATION":97.6498,"RA_OF_ASC_NODE":80.5625,"ARG_OF_PERICENTER":85.949,"MEAN_ANOMALY":274.6073,"EPHEMERIS_TYPE":0,"CLASSIFICATION_TYPE":"U","NORAD_CAT_ID":33321,"ELEMENT_SET_NO":999,"REV_AT_EPOCH":94655,"BSTAR":0.00019944,"MEAN_MOTION_DOT":1.595e-5,"MEAN_MOTION_DDOT":0},{"OBJECT_NAME":"GEOEYE 1","OBJECT_ID":"2008-042A","EPOCH":"2026-03-29T05:22:01.709760","MEAN_MOTION":14.64646343,"ECCENTRICITY":0.0003266,"INCLINATION":98.1276,"RA_OF_ASC_NODE":163.1579,"ARG_OF_PERICENTER":328.5123,"MEAN_ANOMALY":31.5884,"EPHEMERIS_TYPE":0,"CLASSIFICATION_TYPE":"U","NORAD_CAT_ID":33331,"ELEMENT_SET_NO":999,"REV_AT_EPOCH":93844,"BSTAR":0.00013126,"MEAN_MOTION_DOT":6.5e-6,"MEAN_MOTION_DDOT":0},{"OBJECT_NAME":"THEOS","OBJECT_ID":"2008-049A","EPOCH":"2026-03-29T03:24:37.371744","MEAN_MOTION":14.2012108,"ECCENTRICITY":0.0001075,"INCLINATION":98.5663,"RA_OF_ASC_NODE":147.9954,"ARG_OF_PERICENTER":97.058,"MEAN_ANOMALY":263.0719,"EPHEMERIS_TYPE":0,"CLASSIFICATION_TYPE":"U","NORAD_CAT_ID":33396,"ELEMENT_SET_NO":999,"REV_AT_EPOCH":90660,"BSTAR":9.9257e-5,"MEAN_MOTION_DOT":1.69e-6,"MEAN_MOTION_DDOT":0},{"OBJECT_NAME":"COSMO-SKYMED 3","OBJECT_ID":"2008-054A","EPOCH":"2026-03-29T04:23:36.890304","MEAN_MOTION":15.06411482,"ECCENTRICITY":0.0015934,"INCLINATION":97.84,"RA_OF_ASC_NODE":305.4081,"ARG_OF_PERICENTER":171.5224,"MEAN_ANOMALY":188.6275,"EPHEMERIS_TYPE":0,"CLASSIFICATION_TYPE":"U","NORAD_CAT_ID":33412,"ELEMENT_SET_NO":999,"REV_AT_EPOCH":94489,"BSTAR":0.00028947,"MEAN_MOTION_DOT":4.212e-5,"MEAN_MOTION_DDOT":0},{"OBJECT_NAME":"YAOGAN-4","OBJECT_ID":"2008-061A","EPOCH":"2026-03-29T02:01:27.111648","MEAN_MOTION":14.83034078,"ECCENTRICITY":0.0013785,"INCLINATION":97.9263,"RA_OF_ASC_NODE":22.2164,"ARG_OF_PERICENTER":337.5029,"MEAN_ANOMALY":22.5578,"EPHEMERIS_TYPE":0,"CLASSIFICATION_TYPE":"U","NORAD_CAT_ID":33446,"ELEMENT_SET_NO":999,"REV_AT_EPOCH":93379,"BSTAR":0.00017917,"MEAN_MOTION_DOT":1.405e-5,"MEAN_MOTION_DDOT":0},{"OBJECT_NAME":"GOSAT (IBUKI)","OBJECT_ID":"2009-002A","EPOCH":"2026-03-29T05:29:44.150208","MEAN_MOTION":14.67545866,"ECCENTRICITY":9.96e-5,"INCLINATION":98.0788,"RA_OF_ASC_NODE":200.3541,"ARG_OF_PERICENTER":92.7615,"MEAN_ANOMALY":267.3703,"EPHEMERIS_TYPE":0,"CLASSIFICATION_TYPE":"U","NORAD_CAT_ID":33492,"ELEMENT_SET_NO":999,"REV_AT_EPOCH":91973,"BSTAR":0.00014515,"MEAN_MOTION_DOT":7.75e-6,"MEAN_MOTION_DDOT":0},{"OBJECT_NAME":"DEIMOS-1","OBJECT_ID":"2009-041A","EPOCH":"2026-03-29T03:33:22.065120","MEAN_MOTION":14.75145669,"ECCENTRICITY":0.0002752,"INCLINATION":97.7294,"RA_OF_ASC_NODE":248.8896,"ARG_OF_PERICENTER":88.262,"MEAN_ANOMALY":271.8905,"EPHEMERIS_TYPE":0,"CLASSIFICATION_TYPE":"U","NORAD_CAT_ID":35681,"ELEMENT_SET_NO":999,"REV_AT_EPOCH":89508,"BSTAR":0.00016071,"MEAN_MOTION_DOT":1.037e-5,"MEAN_MOTION_DDOT":0},{"OBJECT_NAME":"DUBAISAT-1","OBJECT_ID":"2009-041B","EPOCH":"2026-03-29T02:40:02.127936","MEAN_MOTION":14.74959342,"ECCENTRICITY":0.0009733,"INCLINATION":97.9912,"RA_OF_ASC_NODE":222.3112,"ARG_OF_PERICENTER":334.4328,"MEAN_ANOMALY":25.6398,"EPHEMERIS_TYPE":0,"CLASSIFICATION_TYPE":"U","NORAD_CAT_ID":35682,"ELEMENT_SET_NO":999,"REV_AT_EPOCH":89329,"BSTAR":0.00021341,"MEAN_MOTION_DOT":1.384e-5,"MEAN_MOTION_DDOT":0},{"OBJECT_NAME":"OCEANSAT-2","OBJECT_ID":"2009-051A","EPOCH":"2026-03-29T03:14:24.716256","MEAN_MOTION":13.99652696,"ECCENTRICITY":0.0017676,"INCLINATION":98.2312,"RA_OF_ASC_NODE":82.9942,"ARG_OF_PERICENTER":98.6488,"MEAN_ANOMALY":261.6682,"EPHEMERIS_TYPE":0,"CLASSIFICATION_TYPE":"U","NORAD_CAT_ID":35931,"ELEMENT_SET_NO":999,"REV_AT_EPOCH":86813,"BSTAR":0.00019544,"MEAN_MOTION_DOT":2.49e-6,"MEAN_MOTION_DDOT":0},{"OBJECT_NAME":"WORLDVIEW-2 (WV-2)","OBJECT_ID":"2009-055A","EPOCH":"2026-03-29T05:03:27.420192","MEAN_MOTION":14.37918618,"ECCENTRICITY":0.0005571,"INCLINATION":98.4662,"RA_OF_ASC_NODE":162.7949,"ARG_OF_PERICENTER":98.5281,"MEAN_ANOMALY":261.6537,"EPHEMERIS_TYPE":0,"CLASSIFICATION_TYPE":"U","NORAD_CAT_ID":35946,"ELEMENT_SET_NO":999,"REV_AT_EPOCH":86415,"BSTAR":7.3104e-5,"MEAN_MOTION_DOT":1.77e-6,"MEAN_MOTION_DDOT":0}]
